start=new Date('2021-12-25T00:00:00.000Z').valueOf();
sats=[{"REF_FRAME":"TEME","RA_OF_ASC_NODE":"46.2178","PERIOD":"95.593","TLE_LINE1":"1 48381U 21038AE  21358.86387274 -.00003864  00000-0 -24067-3 0  9997","OBJECT_TYPE":"PAYLOAD","MEAN_MOTION":"15.06391365","MEAN_MOTION_DOT":"-0.00003864","ELEMENT_SET_NO":"999","REV_AT_EPOCH":"3568","INCLINATION":"53.0556","EPHEMERIS_TYPE":"0","BSTAR":"-0.00024067000000","TIME_SYSTEM":"UTC","OBJECT_ID":"2021-038AE","SITE":"AFETR","ECCENTRICITY":"0.00014440","TLE_LINE2":"2 48381  53.0556  46.2178 0001444  67.4848 292.6294 15.06391365 35683","COUNTRY_CODE":"US","EPOCH":"2021-12-24T20:43:58.604736","CENTER_NAME":"EARTH","RCS_SIZE":"LARGE","DECAY_DATE":null,"FILE":"3250462","MEAN_ELEMENT_THEORY":"SGP4","SEMIMAJOR_AXIS":"6925.375","GP_ID":"192397077","NORAD_CAT_ID":"48381","PERIAPSIS":"546.240","OBJECT_NAME":"STARLINK-2630","LAUNCH_DATE":"2021-05-04","MEAN_MOTION_DDOT":"0.0000000000000","CLASSIFICATION_TYPE":"U","MEAN_ANOMALY":"292.6294","APOAPSIS":"548.240","ARG_OF_PERICENTER":"67.4848"},{"CENTER_NAME":"EARTH","RCS_SIZE":"LARGE","TLE_LINE2":"2 48382  53.0547  46.2230 0001601  65.9296 294.1860 15.06407962 35685","EPOCH":"2021-12-24T20:38:41.940096","COUNTRY_CODE":"US","FILE":"3250462","MEAN_ELEMENT_THEORY":"SGP4","DECAY_DATE":null,"PERIAPSIS":"546.080","NORAD_CAT_ID":"48382","OBJECT_NAME":"STARLINK-2585","LAUNCH_DATE":"2021-05-04","SEMIMAJOR_AXIS":"6925.324","GP_ID":"192397327","MEAN_ANOMALY":"294.1860","APOAPSIS":"548.298","ARG_OF_PERICENTER":"65.9296","MEAN_MOTION_DDOT":"0.0000000000000","CLASSIFICATION_TYPE":"U","PERIOD":"95.592","TLE_LINE1":"1 48382U 21038AF  21358.86020764  .00010405  00000-0  71625-3 0  9995","REF_FRAME":"TEME","RA_OF_ASC_NODE":"46.2230","MEAN_MOTION":"15.06407962","OBJECT_TYPE":"PAYLOAD","MEAN_MOTION_DOT":"0.00010405","OBJECT_ID":"2021-038AF","TIME_SYSTEM":"UTC","SITE":"AFETR","ECCENTRICITY":"0.00016010","ELEMENT_SET_NO":"999","REV_AT_EPOCH":"3568","INCLINATION":"53.0547","EPHEMERIS_TYPE":"0","BSTAR":"0.00071625000000"},{"MEAN_MOTION_DOT":"0.00002915","TIME_SYSTEM":"UTC","OBJECT_ID":"2021-038AG","ECCENTRICITY":"0.00017060","SITE":"AFETR","ELEMENT_SET_NO":"999","REV_AT_EPOCH":"3690","INCLINATION":"53.0539","BSTAR":"0.00021446000000","EPHEMERIS_TYPE":"0","PERIOD":"95.591","TLE_LINE1":"1 48383U 21038AG  21358.85650916  .00002915  00000-0  21446-3 0  9996","REF_FRAME":"TEME","RA_OF_ASC_NODE":"46.2306","MEAN_MOTION":"15.06411260","OBJECT_TYPE":"PAYLOAD","PERIAPSIS":"545.998","NORAD_CAT_ID":"48383","OBJECT_NAME":"STARLINK-2599","LAUNCH_DATE":"2021-05-04","SEMIMAJOR_AXIS":"6925.314","GP_ID":"192397579","MEAN_ANOMALY":"287.2006","APOAPSIS":"548.361","ARG_OF_PERICENTER":"72.9170","MEAN_MOTION_DDOT":"0.0000000000000","CLASSIFICATION_TYPE":"U","CENTER_NAME":"EARTH","RCS_SIZE":"LARGE","COUNTRY_CODE":"US","TLE_LINE2":"2 48383  53.0539  46.2306 0001706  72.9170 287.2006 15.06411260 36903","EPOCH":"2021-12-24T20:33:22.391424","FILE":"3250462","MEAN_ELEMENT_THEORY":"SGP4","DECAY_DATE":null},{"LAUNCH_DATE":"2021-05-04","OBJECT_NAME":"STARLINK-2601","PERIAPSIS":"546.105","NORAD_CAT_ID":"48384","GP_ID":"192397830","SEMIMAJOR_AXIS":"6925.371","ARG_OF_PERICENTER":"78.2063","MEAN_ANOMALY":"281.9109","APOAPSIS":"548.367","CLASSIFICATION_TYPE":"U","MEAN_MOTION_DDOT":"0.0000000000000","RCS_SIZE":"LARGE","CENTER_NAME":"EARTH","TLE_LINE2":"2 48384  53.0551  46.2474 0001633  78.2063 281.9109 15.06392655 36904","EPOCH":"2021-12-24T20:28:03.879552","COUNTRY_CODE":"US","MEAN_ELEMENT_THEORY":"SGP4","FILE":"3250462","DECAY_DATE":null,"MEAN_MOTION_DOT":"-0.00004806","SITE":"AFETR","ECCENTRICITY":"0.00016330","OBJECT_ID":"2021-038AH","TIME_SYSTEM":"UTC","BSTAR":"-0.00030404000000","EPHEMERIS_TYPE":"0","INCLINATION":"53.0551","REV_AT_EPOCH":"3690","ELEMENT_SET_NO":"999","TLE_LINE1":"1 48384U 21038AH  21358.85282268 -.00004806  00000-0 -30404-3 0  9995","PERIOD":"95.593","RA_OF_ASC_NODE":"46.2474","REF_FRAME":"TEME","MEAN_MOTION":"15.06392655","OBJECT_TYPE":"PAYLOAD"},{"OBJECT_NAME":"STARLINK-2598","LAUNCH_DATE":"2021-05-04","PERIAPSIS":"546.219","NORAD_CAT_ID":"48385","GP_ID":"192396578","SEMIMAJOR_AXIS":"6925.372","MEAN_ANOMALY":"286.2511","APOAPSIS":"548.255","ARG_OF_PERICENTER":"73.8640","CLASSIFICATION_TYPE":"U","MEAN_MOTION_DDOT":"0.0000000000000","CENTER_NAME":"EARTH","RCS_SIZE":"LARGE","TLE_LINE2":"2 48385  53.0551  46.2639 0001470  73.8640 286.2511 15.06392251 36906","EPOCH":"2021-12-24T20:22:45.168096","COUNTRY_CODE":"US","MEAN_ELEMENT_THEORY":"SGP4","FILE":"3250462","DECAY_DATE":null,"MEAN_MOTION_DOT":"0.00000241","OBJECT_ID":"2021-038AJ","TIME_SYSTEM":"UTC","ECCENTRICITY":"0.00014700","SITE":"AFETR","EPHEMERIS_TYPE":"0","BSTAR":"0.00003511000000","ELEMENT_SET_NO":"999","INCLINATION":"53.0551","REV_AT_EPOCH":"3690","TLE_LINE1":"1 48385U 21038AJ  21358.84913389  .00000241  00000-0  35110-4 0  9997","PERIOD":"95.593","RA_OF_ASC_NODE":"46.2639","REF_FRAME":"TEME","MEAN_MOTION":"15.06392251","OBJECT_TYPE":"PAYLOAD"},{"RA_OF_ASC_NODE":"41.3393","REF_FRAME":"TEME","TLE_LINE1":"1 48386U 21038AK  21358.83575042  .00004035  00000-0  28960-3 0  9996","PERIOD":"95.592","OBJECT_TYPE":"PAYLOAD","MEAN_MOTION":"15.06404062","MEAN_MOTION_DOT":"0.00004035","BSTAR":"0.00028960000000","EPHEMERIS_TYPE":"0","ELEMENT_SET_NO":"999","REV_AT_EPOCH":"3574","INCLINATION":"53.0567","TIME_SYSTEM":"UTC","OBJECT_ID":"2021-038AK","ECCENTRICITY":"0.00014340","SITE":"AFETR","TLE_LINE2":"2 48386  53.0567  41.3393 0001434  74.3104 285.8043 15.06404062 35748","EPOCH":"2021-12-24T20:03:28.836288","COUNTRY_CODE":"US","CENTER_NAME":"EARTH","RCS_SIZE":"LARGE","DECAY_DATE":null,"MEAN_ELEMENT_THEORY":"SGP4","FILE":"3250462","GP_ID":"192396828","SEMIMAJOR_AXIS":"6925.336","OBJECT_NAME":"STARLINK-2606","LAUNCH_DATE":"2021-05-04","PERIAPSIS":"546.208","NORAD_CAT_ID":"48386","CLASSIFICATION_TYPE":"U","MEAN_MOTION_DDOT":"0.0000000000000","MEAN_ANOMALY":"285.8043","APOAPSIS":"548.194","ARG_OF_PERICENTER":"74.3104"},{"RCS_SIZE":"MEDIUM","CENTER_NAME":"EARTH","TLE_LINE2":"2 48387  53.0555  42.6826 0001332  82.8629 277.2511 15.06394144 35704","EPOCH":"2021-12-24T12:53:33.351648","COUNTRY_CODE":"US","FILE":"3250080","MEAN_ELEMENT_THEORY":"SGP4","DECAY_DATE":null,"NORAD_CAT_ID":"48387","PERIAPSIS":"546.309","LAUNCH_DATE":"2021-05-04","OBJECT_NAME":"STARLINK-2600","SEMIMAJOR_AXIS":"6925.367","GP_ID":"192364044","ARG_OF_PERICENTER":"82.8629","MEAN_ANOMALY":"277.2511","APOAPSIS":"548.154","MEAN_MOTION_DDOT":"0.0000000000000","CLASSIFICATION_TYPE":"U","PERIOD":"95.593","TLE_LINE1":"1 48387U 21038AL  21358.53719157  .00003152  00000-0  23045-3 0  9999","REF_FRAME":"TEME","RA_OF_ASC_NODE":"42.6826","MEAN_MOTION":"15.06394144","OBJECT_TYPE":"PAYLOAD","MEAN_MOTION_DOT":"0.00003152","ECCENTRICITY":"0.00013320","SITE":"AFETR","TIME_SYSTEM":"UTC","OBJECT_ID":"2021-038AL","REV_AT_EPOCH":"3570","INCLINATION":"53.0555","ELEMENT_SET_NO":"999","BSTAR":"0.00023045000000","EPHEMERIS_TYPE":"0"},{"PERIOD":"95.591","TLE_LINE1":"1 48388U 21038AM  21358.86249331  .00006707  00000-0  46857-3 0  9993","REF_FRAME":"TEME","RA_OF_ASC_NODE":"41.2048","MEAN_MOTION":"15.06411616","OBJECT_TYPE":"PAYLOAD","MEAN_MOTION_DOT":"0.00006707","OBJECT_ID":"2021-038AM","TIME_SYSTEM":"UTC","ECCENTRICITY":"0.00015320","SITE":"AFETR","ELEMENT_SET_NO":"999","INCLINATION":"53.0551","REV_AT_EPOCH":"3575","BSTAR":"0.00046857000000","EPHEMERIS_TYPE":"0","CENTER_NAME":"EARTH","RCS_SIZE":"MEDIUM","TLE_LINE2":"2 48388  53.0551  41.2048 0001532  73.2910 286.8247 15.06411616 35752","COUNTRY_CODE":"US","EPOCH":"2021-12-24T20:41:59.421984","FILE":"3250462","MEAN_ELEMENT_THEORY":"SGP4","DECAY_DATE":null,"NORAD_CAT_ID":"48388","PERIAPSIS":"546.117","OBJECT_NAME":"STARLINK-2594","LAUNCH_DATE":"2021-05-04","SEMIMAJOR_AXIS":"6925.313","GP_ID":"192398330","MEAN_ANOMALY":"286.8247","APOAPSIS":"548.239","ARG_OF_PERICENTER":"73.2910","MEAN_MOTION_DDOT":"0.0000000000000","CLASSIFICATION_TYPE":"U"},{"FILE":"3250462","MEAN_ELEMENT_THEORY":"SGP4","DECAY_DATE":null,"RCS_SIZE":"LARGE","CENTER_NAME":"EARTH","COUNTRY_CODE":"US","TLE_LINE2":"2 48389  53.0539  36.2564 0001611  86.3724 273.7449 15.06395466 35812","EPOCH":"2021-12-24T20:24:04.958496","ARG_OF_PERICENTER":"86.3724","APOAPSIS":"548.343","MEAN_ANOMALY":"273.7449","MEAN_MOTION_DDOT":"0.0000000000000","CLASSIFICATION_TYPE":"U","NORAD_CAT_ID":"48389","PERIAPSIS":"546.112","LAUNCH_DATE":"2021-05-04","OBJECT_NAME":"STARLINK-1904","SEMIMAJOR_AXIS":"6925.362","GP_ID":"192397078","MEAN_MOTION":"15.06395466","OBJECT_TYPE":"PAYLOAD","PERIOD":"95.592","TLE_LINE1":"1 48389U 21038AN  21358.85005739  .00002399  00000-0  17989-3 0  9992","REF_FRAME":"TEME","RA_OF_ASC_NODE":"36.2564","SITE":"AFETR","ECCENTRICITY":"0.00016110","OBJECT_ID":"2021-038AN","TIME_SYSTEM":"UTC","REV_AT_EPOCH":"3581","INCLINATION":"53.0539","ELEMENT_SET_NO":"999","EPHEMERIS_TYPE":"0","BSTAR":"0.00017989000000","MEAN_MOTION_DOT":"0.00002399"},{"DECAY_DATE":null,"FILE":"3250462","MEAN_ELEMENT_THEORY":"SGP4","COUNTRY_CODE":"US","TLE_LINE2":"2 48390  53.0571  36.2867 0001322  76.6598 283.4538 15.06385062 37030","EPOCH":"2021-12-24T20:18:47.243232","RCS_SIZE":"LARGE","CENTER_NAME":"EARTH","MEAN_MOTION_DDOT":"0.0000000000000","CLASSIFICATION_TYPE":"U","ARG_OF_PERICENTER":"76.6598","MEAN_ANOMALY":"283.4538","APOAPSIS":"548.175","SEMIMAJOR_AXIS":"6925.394","GP_ID":"192397328","NORAD_CAT_ID":"48390","PERIAPSIS":"546.344","LAUNCH_DATE":"2021-05-04","OBJECT_NAME":"STARLINK-2586","OBJECT_TYPE":"PAYLOAD","MEAN_MOTION":"15.06385062","REF_FRAME":"TEME","RA_OF_ASC_NODE":"36.2867","PERIOD":"95.593","TLE_LINE1":"1 48390U 21038AP  21358.84638013  .00001061  00000-0  90112-4 0  9995","INCLINATION":"53.0571","REV_AT_EPOCH":"3703","ELEMENT_SET_NO":"999","EPHEMERIS_TYPE":"0","BSTAR":"0.00009011200000","SITE":"AFETR","ECCENTRICITY":"0.00013220","OBJECT_ID":"2021-038AP","TIME_SYSTEM":"UTC","MEAN_MOTION_DOT":"0.00001061"}];
